start=new Date('2021-10-03T00:00:00.000Z').valueOf();
sats=[{"ARG_OF_PERICENTER":"112.4682","MEAN_MOTION_DOT":"-0.00000025","RCS_SIZE":"LARGE","SITE":"AFETR","MEAN_MOTION_DDOT":"0.0000000000000","APOAPSIS":"548.381","EPOCH":"2021-10-02T15:42:48.200256","PERIAPSIS":"546.070","BSTAR":"0.00001724500000","TLE_LINE2":"2 48408  53.0533  49.7393 0001669 112.4682 247.6484 15.06396070 23272","DECAY_DATE":null,"TLE_LINE1":"1 48408U 21038BH  21275.65472454 -.00000025  00000-0  17245-4 0  9993","CLASSIFICATION_TYPE":"U","CENTER_NAME":"EARTH","OBJECT_NAME":"STARLINK-2592","RA_OF_ASC_NODE":"49.7393","ELEMENT_SET_NO":"999","EPHEMERIS_TYPE":"0","MEAN_ANOMALY":"247.6484","NORAD_CAT_ID":"48408","OBJECT_TYPE":"PAYLOAD","INCLINATION":"53.0533","OBJECT_ID":"2021-038BH","GP_ID":"186054052","FILE":"3141323","SEMIMAJOR_AXIS":"6925.361","COUNTRY_CODE":"US","LAUNCH_DATE":"2021-05-04","REF_FRAME":"TEME","MEAN_ELEMENT_THEORY":"SGP4","MEAN_MOTION":"15.06396070","PERIOD":"95.592","TIME_SYSTEM":"UTC","REV_AT_EPOCH":"2327","ECCENTRICITY":"0.00016690"},{"MEAN_MOTION_DOT":"-0.00000063","ARG_OF_PERICENTER":"111.0519","APOAPSIS":"548.384","EPOCH":"2021-10-02T16:16:38.706528","SITE":"AFETR","MEAN_MOTION_DDOT":"0.0000000000000","RCS_SIZE":"LARGE","BSTAR":"0.00001466900000","PERIAPSIS":"546.076","ELEMENT_SET_NO":"999","RA_OF_ASC_NODE":"54.6329","OBJECT_NAME":"STARLINK-2596","CENTER_NAME":"EARTH","CLASSIFICATION_TYPE":"U","TLE_LINE2":"2 48409  53.0563  54.6329 0001667 111.0519 249.0648 15.06394643 23229","DECAY_DATE":null,"TLE_LINE1":"1 48409U 21038BJ  21275.67822577 -.00000063  00000-0  14669-4 0  9990","SEMIMAJOR_AXIS":"6925.365","FILE":"3141323","GP_ID":"186053616","OBJECT_ID":"2021-038BJ","OBJECT_TYPE":"PAYLOAD","INCLINATION":"53.0563","NORAD_CAT_ID":"48409","EPHEMERIS_TYPE":"0","MEAN_ANOMALY":"249.0648","REF_FRAME":"TEME","LAUNCH_DATE":"2021-05-04","COUNTRY_CODE":"US","MEAN_MOTION":"15.06394643","MEAN_ELEMENT_THEORY":"SGP4","ECCENTRICITY":"0.00016670","REV_AT_EPOCH":"2322","TIME_SYSTEM":"UTC","PERIOD":"95.592"},{"PERIOD":"91.535","TIME_SYSTEM":"UTC","ECCENTRICITY":"0.00044700","REV_AT_EPOCH":"373","MEAN_MOTION":"15.73164717","MEAN_ELEMENT_THEORY":"SGP4","LAUNCH_DATE":"2021-05-04","COUNTRY_CODE":"US","REF_FRAME":"TEME","NORAD_CAT_ID":"48410","OBJECT_TYPE":"PAYLOAD","INCLINATION":"53.0490","MEAN_ANOMALY":"91.2529","EPHEMERIS_TYPE":"0","SEMIMAJOR_AXIS":"6727.996","GP_ID":"186053727","FILE":"3141323","OBJECT_ID":"2021-038BK","CLASSIFICATION_TYPE":"U","CENTER_NAME":"EARTH","TLE_LINE1":"1 48410U 21038BK  21276.00001157 -.00035648  00000-0 -25079-3 0  9997","TLE_LINE2":"2 48410  53.0490  12.7126 0004470 340.9334  91.2529 15.73164717  3733","DECAY_DATE":null,"ELEMENT_SET_NO":"999","OBJECT_NAME":"STARLINK-2563","RA_OF_ASC_NODE":"12.7126","PERIAPSIS":"346.853","BSTAR":"-0.00025079000000","MEAN_MOTION_DDOT":"0.0000000000000","SITE":"AFETR","RCS_SIZE":"LARGE","APOAPSIS":"352.868","EPOCH":"2021-10-03T00:00:00.999648","ARG_OF_PERICENTER":"340.9334","MEAN_MOTION_DOT":"-0.00035648"},{"PERIAPSIS":"346.816","BSTAR":"-0.00051452000000","CLASSIFICATION_TYPE":"U","CENTER_NAME":"EARTH","DECAY_DATE":null,"TLE_LINE2":"2 48411  53.0490  12.7082 0004397 343.6240  89.1710 15.73195196  3732","TLE_LINE1":"1 48411U 21038BL  21276.00001157 -.00072262  00000-0 -51452-3 0  9995","ELEMENT_SET_NO":"999","OBJECT_NAME":"STARLINK-2505","RA_OF_ASC_NODE":"12.7082","ARG_OF_PERICENTER":"343.6240","MEAN_MOTION_DOT":"-0.00072262","MEAN_MOTION_DDOT":"0.0000000000000","SITE":"AFETR","RCS_SIZE":"LARGE","EPOCH":"2021-10-03T00:00:00.999648","APOAPSIS":"352.732","MEAN_MOTION":"15.73195196","MEAN_ELEMENT_THEORY":"SGP4","PERIOD":"91.533","TIME_SYSTEM":"UTC","REV_AT_EPOCH":"373","ECCENTRICITY":"0.00043970","NORAD_CAT_ID":"48411","INCLINATION":"53.0490","OBJECT_TYPE":"PAYLOAD","EPHEMERIS_TYPE":"0","MEAN_ANOMALY":"89.1710","SEMIMAJOR_AXIS":"6727.909","GP_ID":"186053508","FILE":"3141323","OBJECT_ID":"2021-038BL","LAUNCH_DATE":"2021-05-04","COUNTRY_CODE":"US","REF_FRAME":"TEME"},{"EPOCH":"2021-10-03T00:00:00.999648","APOAPSIS":"353.201","MEAN_MOTION_DDOT":"0.0000000000000","SITE":"AFETR","RCS_SIZE":"LARGE","MEAN_MOTION_DOT":"0.00032525","ARG_OF_PERICENTER":"332.8530","ELEMENT_SET_NO":"999","OBJECT_NAME":"STARLINK-2581","RA_OF_ASC_NODE":"12.7105","CLASSIFICATION_TYPE":"U","CENTER_NAME":"EARTH","TLE_LINE1":"1 48412U 21038BM  21276.00001157  .00032525  00000-0  23555-3 0  9995","TLE_LINE2":"2 48412  53.0490  12.7105 0004927 332.8530 100.5427 15.73155766  3732","DECAY_DATE":null,"BSTAR":"0.00023555000000","PERIAPSIS":"346.571","REF_FRAME":"TEME","LAUNCH_DATE":"2021-05-04","COUNTRY_CODE":"US","SEMIMAJOR_AXIS":"6728.021","OBJECT_ID":"2021-038BM","GP_ID":"186054159","FILE":"3141323","NORAD_CAT_ID":"48412","INCLINATION":"53.0490","OBJECT_TYPE":"PAYLOAD","EPHEMERIS_TYPE":"0","MEAN_ANOMALY":"100.5427","TIME_SYSTEM":"UTC","REV_AT_EPOCH":"373","ECCENTRICITY":"0.00049270","PERIOD":"91.536","MEAN_MOTION":"15.73155766","MEAN_ELEMENT_THEORY":"SGP4"},{"PERIAPSIS":"546.326","BSTAR":"0.00000193630000","TLE_LINE1":"1 48428U 21040A   21275.65979946 -.00000253  00000-0  19363-5 0  9993","TLE_LINE2":"2 48428  53.0548 254.7149 0001242  72.7816 287.3308 15.06408932 22536","DECAY_DATE":null,"CLASSIFICATION_TYPE":"U","CENTER_NAME":"EARTH","OBJECT_NAME":"STARLINK-2461","RA_OF_ASC_NODE":"254.7149","ELEMENT_SET_NO":"999","ARG_OF_PERICENTER":"72.7816","MEAN_MOTION_DOT":"-0.00000253","RCS_SIZE":"LARGE","SITE":"AFETR","MEAN_MOTION_DDOT":"0.0000000000000","APOAPSIS":"548.046","EPOCH":"2021-10-02T15:50:06.673344","MEAN_ELEMENT_THEORY":"SGP4","MEAN_MOTION":"15.06408932","PERIOD":"95.592","TIME_SYSTEM":"UTC","REV_AT_EPOCH":"2253","ECCENTRICITY":"0.00012420","MEAN_ANOMALY":"287.3308","EPHEMERIS_TYPE":"0","NORAD_CAT_ID":"48428","INCLINATION":"53.0548","OBJECT_TYPE":"PAYLOAD","GP_ID":"186054054","FILE":"3141323","OBJECT_ID":"2021-040A","SEMIMAJOR_AXIS":"6925.321","COUNTRY_CODE":"US","LAUNCH_DATE":"2021-05-09","REF_FRAME":"TEME"},{"TIME_SYSTEM":"UTC","REV_AT_EPOCH":"369","ECCENTRICITY":"0.00018320","PERIOD":"95.591","MEAN_ELEMENT_THEORY":"SGP4","MEAN_MOTION":"15.06423441","REF_FRAME":"TEME","COUNTRY_CODE":"US","LAUNCH_DATE":"2021-05-09","GP_ID":"186053618","FILE":"3141323","OBJECT_ID":"2021-040B","SEMIMAJOR_AXIS":"6925.277","MEAN_ANOMALY":"163.6330","EPHEMERIS_TYPE":"0","NORAD_CAT_ID":"48429","INCLINATION":"53.0512","OBJECT_TYPE":"PAYLOAD","OBJECT_NAME":"STARLINK-2749","RA_OF_ASC_NODE":"223.1854","ELEMENT_SET_NO":"999","TLE_LINE1":"1 48429U 21040B   21276.00001157 -.00024141  00000-0 -16062-2 0  9997","TLE_LINE2":"2 48429  53.0512 223.1854 0001832  52.6101 163.6330 15.06423441  3699","DECAY_DATE":null,"CLASSIFICATION_TYPE":"U","CENTER_NAME":"EARTH","BSTAR":"-0.00160620000000","PERIAPSIS":"545.873","APOAPSIS":"548.410","EPOCH":"2021-10-03T00:00:00.999648","RCS_SIZE":"LARGE","SITE":"AFETR","MEAN_MOTION_DDOT":"0.0000000000000","MEAN_MOTION_DOT":"-0.00024141","ARG_OF_PERICENTER":"52.6101"},{"BSTAR":"-0.00007740700000","PERIAPSIS":"546.165","RA_OF_ASC_NODE":"223.1903","OBJECT_NAME":"STARLINK-2729","ELEMENT_SET_NO":"999","DECAY_DATE":null,"TLE_LINE2":"2 48430  53.0489 223.1903 0001536  58.0045 338.0841 15.06394961  3708","TLE_LINE1":"1 48430U 21040C   21276.00001157 -.00001434  00000-0 -77407-4 0  9991","CENTER_NAME":"EARTH","CLASSIFICATION_TYPE":"U","MEAN_MOTION_DOT":"-0.00001434","ARG_OF_PERICENTER":"58.0045","EPOCH":"2021-10-03T00:00:00.999648","APOAPSIS":"548.293","RCS_SIZE":"LARGE","MEAN_MOTION_DDOT":"0.0000000000000","SITE":"AFETR","MEAN_ELEMENT_THEORY":"SGP4","MEAN_MOTION":"15.06394961","REV_AT_EPOCH":"370","ECCENTRICITY":"0.00015360","TIME_SYSTEM":"UTC","PERIOD":"95.592","FILE":"3141323","GP_ID":"186053729","OBJECT_ID":"2021-040C","SEMIMAJOR_AXIS":"6925.364","MEAN_ANOMALY":"338.0841","EPHEMERIS_TYPE":"0","OBJECT_TYPE":"PAYLOAD","INCLINATION":"53.0489","NORAD_CAT_ID":"48430","REF_FRAME":"TEME","COUNTRY_CODE":"US","LAUNCH_DATE":"2021-05-09"},{"EPHEMERIS_TYPE":"0","MEAN_ANOMALY":"329.6864","INCLINATION":"53.0456","OBJECT_TYPE":"PAYLOAD","NORAD_CAT_ID":"48431","GP_ID":"186053510","OBJECT_ID":"2021-040D","FILE":"3141323","SEMIMAJOR_AXIS":"6872.911","COUNTRY_CODE":"US","LAUNCH_DATE":"2021-05-09","REF_FRAME":"TEME","MEAN_ELEMENT_THEORY":"SGP4","MEAN_MOTION":"15.23672782","PERIOD":"94.508","REV_AT_EPOCH":"373","ECCENTRICITY":"0.00014410","TIME_SYSTEM":"UTC","ARG_OF_PERICENTER":"51.2614","MEAN_MOTION_DOT":"-0.00836925","RCS_SIZE":"LARGE","MEAN_MOTION_DDOT":"0.0000000000000","SITE":"AFETR","EPOCH":"2021-10-03T00:00:00.999648","APOAPSIS":"495.766","PERIAPSIS":"493.785","BSTAR":"-0.03735000000000","TLE_LINE2":"2 48431  53.0456 218.7740 0001441  51.2614 329.6864 15.23672782  3737","TLE_LINE1":"1 48431U 21040D   21276.00001157 -.00836925  00000-0 -37350-1 0  9993","DECAY_DATE":null,"CENTER_NAME":"EARTH","CLASSIFICATION_TYPE":"U","RA_OF_ASC_NODE":"218.7740","OBJECT_NAME":"STARLINK-2700","ELEMENT_SET_NO":"999"},{"PERIAPSIS":"431.138","BSTAR":"-0.00008343800000","CLASSIFICATION_TYPE":"U","CENTER_NAME":"EARTH","TLE_LINE1":"1 48432U 21040E   21276.00001157 -.00004393  00000-0 -83438-4 0  9991","TLE_LINE2":"2 48432  53.0467 215.5139 0001191  53.9114 142.4504 15.44806235  4102","DECAY_DATE":null,"ELEMENT_SET_NO":"999","OBJECT_NAME":"STARLINK-2680","RA_OF_ASC_NODE":"215.5139","ARG_OF_PERICENTER":"53.9114","MEAN_MOTION_DOT":"-0.00004393","SITE":"AFETR","MEAN_MOTION_DDOT":"0.0000000000000","RCS_SIZE":"LARGE","EPOCH":"2021-10-03T00:00:00.999648","APOAPSIS":"432.761","MEAN_MOTION":"15.44806235","MEAN_ELEMENT_THEORY":"SGP4","PERIOD":"93.216","TIME_SYSTEM":"UTC","REV_AT_EPOCH":"410","ECCENTRICITY":"0.00011910","NORAD_CAT_ID":"48432","OBJECT_TYPE":"PAYLOAD","INCLINATION":"53.0467","EPHEMERIS_TYPE":"0","MEAN_ANOMALY":"142.4504","SEMIMAJOR_AXIS":"6810.084","FILE":"3141323","GP_ID":"186054161","OBJECT_ID":"2021-040E","LAUNCH_DATE":"2021-05-09","COUNTRY_CODE":"US","REF_FRAME":"TEME"}];
